0 SL-18 DEB
1 28284U 93014M   13282.09765429  .00004095  00000-0  10802-2 0  5648
2 28284 075.7546 072.2305 0137832 043.8212 245.7857 14.43581291504244
0 SL-18 DEB
1 28284U 93014M   13285.09143899  .00004255  00000-0  11297-2 0  5650
2 28284 075.7523 067.2295 0133492 035.9721 325.2129 14.43612185504687
0 SL-18 DEB
1 28284U 93014M   13288.07134027  .00004407  00000-0  11527-2 0  5660
2 28284 075.7345 062.3184 0141942 029.4537 331.4311 14.43645472505110
0 SL-18 DEB
1 28284U 93014M   13294.03101005  .00005009  00000-0  13110-2 0  5673
2 28284 075.7383 052.3963 0140495 015.6227 345.1018 14.43708899505974
